{
  "type": "FeatureCollection",
  "features": [
    {
      "type": "Feature",
      "properties": {
        "norad_id": 59626,
        "name": "LEGION 2",
        "group": "resource",
        "lat": 42.66756696996943,
        "lon": 50.57734418946745,
        "alt_km": 513.3469581834961,
        "timestamp": "2025-12-08T19:31:48.485704+00:00",
        "meta_object_name": "LEGION 2",
        "meta_object_id": "2024-081B",
        "meta_epoch": "2025-12-08T06:40:16.654656",
        "meta_mean_motion": 15.16425279,
        "meta_eccentricity": 0.00058923,
        "meta_inclination": 97.5219,
        "meta_ra_of_asc_node": 57.0416,
        "meta_arg_of_pericenter": 312.6786,
        "meta_mean_anomaly": 47.395,
        "meta_ephemeris_type": 0,
        "meta_classification_type": "U",
        "meta_norad_cat_id": 59626,
        "meta_element_set_no": 999,
        "meta_rev_at_epoch": 8860,
        "meta_bstar": 0.00036488228,
        "meta_mean_motion_dot": 7.03e-05,
        "meta_mean_motion_ddot": 0,
        "tle_line1": "1 59626U 24081B   25342.27797054  .00007030  00000+0  36488-3 0  9991",
        "tle_line2": "2 59626  97.5219  57.0416 0005892 312.6786  47.3950 15.16425279 88605"
      },
      "geometry": {
        "type": "Point",
        "coordinates": [
          50.57734418946745,
          42.66756696996943
        ]
      }
    },
    {
      "type": "Feature",
      "properties": {
        "norad_id": 60182,
        "name": "ALOS-4 (DAICHI-4)",
        "group": "resource",
        "lat": -41.82742106537656,
        "lon": -109.44277213989858,
        "alt_km": 638.1357794633068,
        "timestamp": "2025-12-08T19:31:48.485713+00:00",
        "meta_object_name": "ALOS-4 (DAICHI-4)",
        "meta_object_id": "2024-123A",
        "meta_epoch": "2025-12-08T05:32:36.093984",
        "meta_mean_motion": 14.79474801,
        "meta_eccentricity": 0.00013733,
        "meta_inclination": 97.9229,
        "meta_ra_of_asc_node": 77.1425,
        "meta_arg_of_pericenter": 99.1811,
        "meta_mean_anomaly": 260.9556,
        "meta_ephemeris_type": 0,
        "meta_classification_type": "U",
        "meta_norad_cat_id": 60182,
        "meta_element_set_no": 999,
        "meta_rev_at_epoch": 7764,
        "meta_bstar": 0.00050470123,
        "meta_mean_motion_dot": 3.72e-05,
        "meta_mean_motion_ddot": 0,
        "tle_line1": "1 60182U 24123A   25342.23097331  .00003720  00000+0  50470-3 0  9993",
        "tle_line2": "2 60182  97.9229  77.1425 0001373  99.1811 260.9556 14.79474801 77648"
      },
      "geometry": {
        "type": "Point",
        "coordinates": [
          -109.44277213989858,
          -41.82742106537656
        ]
      }
    },
    {
      "type": "Feature",
      "properties": {
        "norad_id": 60452,
        "name": "LEGION 3",
        "group": "resource",
        "lat": 40.127458055970024,
        "lon": 28.67794470657121,
        "alt_km": 516.3416353058756,
        "timestamp": "2025-12-08T19:31:48.485724+00:00",
        "meta_object_name": "LEGION 3",
        "meta_object_id": "2024-146A",
        "meta_epoch": "2025-12-08T06:35:11.789664",
        "meta_mean_motion": 15.15689415,
        "meta_eccentricity": 0.00143723,
        "meta_inclination": 45.0028,
        "meta_ra_of_asc_node": 334.0692,
        "meta_arg_of_pericenter": 174.233,
        "meta_mean_anomaly": 185.8716,
        "meta_ephemeris_type": 0,
        "meta_classification_type": "U",
        "meta_norad_cat_id": 60452,
        "meta_element_set_no": 999,
        "meta_rev_at_epoch": 7305,
        "meta_bstar": 0.00037611581,
        "meta_mean_motion_dot": 7.041e-05,
        "meta_mean_motion_ddot": 0,
        "tle_line1": "1 60452U 24146A   25342.27444201  .00007041  00000+0  37612-3 0  9997",
        "tle_line2": "2 60452  45.0028 334.0692 0014372 174.2330 185.8716 15.15689415 73058"
      },
      "geometry": {
        "type": "Point",
        "coordinates": [
          28.67794470657121,
          40.127458055970024
        ]
      }
    },
    {
      "type": "Feature",
      "properties": {
        "norad_id": 60453,
        "name": "LEGION 4",
        "group": "resource",
        "lat": 38.618539179115295,
        "lon": 115.88373231706505,
        "alt_km": 517.242940328354,
        "timestamp": "2025-12-08T19:31:48.485733+00:00",
        "meta_object_name": "LEGION 4",
        "meta_object_id": "2024-146B",
        "meta_epoch": "2025-12-08T06:36:15.710112",
        "meta_mean_motion": 15.15753032,
        "meta_eccentricity": 0.00098738,
        "meta_inclination": 45.0388,
        "meta_ra_of_asc_node": 65.8031,
        "meta_arg_of_pericenter": 287.731,
        "meta_mean_anomaly": 72.2491,
        "meta_ephemeris_type": 0,
        "meta_classification_type": "U",
        "meta_norad_cat_id": 60453,
        "meta_element_set_no": 999,
        "meta_rev_at_epoch": 7190,
        "meta_bstar": 0.00037405461,
        "meta_mean_motion_dot": 7.005e-05,
        "meta_mean_motion_ddot": 0,
        "tle_line1": "1 60453U 24146B   25342.27518183  .00007005  00000+0  37405-3 0  9999",
        "tle_line2": "2 60453  45.0388  65.8031 0009873 287.7310  72.2491 15.15753032 71900"
      },
      "geometry": {
        "type": "Point",
        "coordinates": [
          115.88373231706505,
          38.618539179115295
        ]
      }
    },
    {
      "type": "Feature",
      "properties": {
        "norad_id": 60989,
        "name": "SENTINEL-2C",
        "group": "resource",
        "lat": -46.81106731852022,
        "lon": 64.59551990975984,
        "alt_km": 796.4255685318303,
        "timestamp": "2025-12-08T19:31:48.485742+00:00",
        "meta_object_name": "SENTINEL-2C",
        "meta_object_id": "2024-157A",
        "meta_epoch": "2025-12-08T04:38:48.682464",
        "meta_mean_motion": 14.30814761,
        "meta_eccentricity": 0.00011517,
        "meta_inclination": 98.5686,
        "meta_ra_of_asc_node": 54.7416,
        "meta_arg_of_pericenter": 97.3703,
        "meta_mean_anomaly": 262.7611,
        "meta_ephemeris_type": 0,
        "meta_classification_type": "U",
        "meta_norad_cat_id": 60989,
        "meta_element_set_no": 999,
        "meta_rev_at_epoch": 6567,
        "meta_bstar": 0.00013496764,
        "meta_mean_motion_dot": 3.1e-06,
        "meta_mean_motion_ddot": 0,
        "tle_line1": "1 60989U 24157A   25342.19361901  .00000310  00000+0  13497-3 0  9997",
        "tle_line2": "2 60989  98.5686  54.7416 0001151  97.3703 262.7611 14.30814761 65674"
      },
      "geometry": {
        "type": "Point",
        "coordinates": [
          64.59551990975984,
          -46.81106731852022
        ]
      }
    },
    {
      "type": "Feature",
      "properties": {
        "norad_id": 61735,
        "name": "IONOSFERA-M 1",
        "group": "resource",
        "lat": -26.505884448756902,
        "lon": -142.90748980043819,
        "alt_km": 821.3341101161004,
        "timestamp": "2025-12-08T19:31:48.485751+00:00",
        "meta_object_name": "IONOSFERA-M 1",
        "meta_object_id": "2024-199A",
        "meta_epoch": "2025-12-08T06:09:10.933920",
        "meta_mean_motion": 14.22712631,
        "meta_eccentricity": 0.00011724,
        "meta_inclination": 98.7414,
        "meta_ra_of_asc_node": 212.1389,
        "meta_arg_of_pericenter": 27.9592,
        "meta_mean_anomaly": 332.1649,
        "meta_ephemeris_type": 0,
        "meta_classification_type": "U",
        "meta_norad_cat_id": 61735,
        "meta_element_set_no": 999,
        "meta_rev_at_epoch": 10055,
        "meta_bstar": 9.3112825e-05,
        "meta_mean_motion_dot": 1.64e-06,
        "meta_mean_motion_ddot": 0,
        "tle_line1": "1 61735U 24199A   25342.25637655  .00000164  00000+0  93113-4 0  9993",
        "tle_line2": "2 61735  98.7414 212.1389 0001172  27.9592 332.1649 14.22712631100556"
      },
      "geometry": {
        "type": "Point",
        "coordinates": [
          -142.90748980043819,
          -26.505884448756902
        ]
      }
    },
    {
      "type": "Feature",
      "properties": {
        "norad_id": 61736,
        "name": "IONOSFERA-M 2",
        "group": "resource",
        "lat": 23.678424582485164,
        "lon": 36.472948435100015,
        "alt_km": 814.7768959407322,
        "timestamp": "2025-12-08T19:31:48.485760+00:00",
        "meta_object_name": "IONOSFERA-M 2",
        "meta_object_id": "2024-199B",
        "meta_epoch": "2025-12-08T06:59:04.894368",
        "meta_mean_motion": 14.22714772,
        "meta_eccentricity": 0.00015379,
        "meta_inclination": 98.7412,
        "meta_ra_of_asc_node": 212.0858,
        "meta_arg_of_pericenter": 115.9464,
        "meta_mean_anomaly": 244.1873,
        "meta_ephemeris_type": 0,
        "meta_classification_type": "U",
        "meta_norad_cat_id": 61736,
        "meta_element_set_no": 999,
        "meta_rev_at_epoch": 10368,
        "meta_bstar": 9.3691177e-05,
        "meta_mean_motion_dot": 1.66e-06,
        "meta_mean_motion_ddot": 0,
        "tle_line1": "1 61736U 24199B   25342.29102887  .00000166  00000+0  93691-4 0  9995",
        "tle_line2": "2 61736  98.7412 212.0858 0001537 115.9464 244.1873 14.22714772103682"
      },
      "geometry": {
        "type": "Point",
        "coordinates": [
          36.472948435100015,
          23.678424582485164
        ]
      }
    }
  ]
}